NORAD_CAT_ID,OBJECT_NAME,OBJECT_TYPE,EPOCH,MEAN_MOTION,ECCENTRICITY,INCLINATION,RA_OF_ASC_NODE,ARG_OF_PERICENTER,MEAN_ANOMALY,BSTAR,MEAN_MOTION_DOT,MEAN_MOTION_DDOT,TLE_LINE0,TLE_LINE1,TLE_LINE2,SEMIMAJOR_AXIS,PERIOD,APOGEE,PERIGEE,DECAYED
53967.0,STARLINK-4634,PAYLOAD,2023-09-25 08:13:15,15.08847872,0.0001607,53.2173,288.0182,86.9062,273.2114,0.00015144,2.123e-05,0.0,0 STARLINK-4634,1 53967U 22125D   23268.34253957  .00002123  00000-0  15144-3 0  9997,2 53967  53.2173 288.0182 0001607  86.9062 273.2114 15.08847872 54006,6917.856,95.437,540.833,538.61,0.0
53967.0,STARLINK-4634,PAYLOAD,2023-09-25 12:59:24,15.08852213,0.0001548,53.217,287.1252,85.5933,274.5236,0.00021682,3.166e-05,0.0,0 STARLINK-4634,1 53967U 22125D   23268.54125642  .00003166  00000-0  21682-3 0  9990,2 53967  53.2170 287.1252 0001548  85.5933 274.5236 15.08852213 54102,6917.843,95.437,540.779,538.637,0.0
53967.0,STARLINK-4634,PAYLOAD,2023-09-26 01:42:29,15.08844988,0.0001579,53.2172,284.7442,87.5727,272.5446,0.00014463,2.015e-05,0.0,0 STARLINK-4634,1 53967U 22125D   23269.07117877  .00002015  00000-0  14463-3 0  9991,2 53967  53.2172 284.7442 0001579  87.5727 272.5446 15.08844988 54184,6917.865,95.437,540.822,538.638,0.0
53967.0,STARLINK-4634,PAYLOAD,2023-09-26 08:04:01,15.08851,0.0001664,53.2167,283.5531,99.3219,260.7961,0.00014858,2.078e-05,0.0,0 STARLINK-4634,1 53967U 22125D   23269.33613293  .00002078  00000-0  14858-3 0  9990,2 53967  53.2167 283.5531 0001664  99.3219 260.7961 15.08851000 54157,6917.847,95.437,540.863,538.561,0.0
53967.0,STARLINK-4634,PAYLOAD,2023-09-27 01:33:16,15.08838798,0.0002005,53.2168,280.2845,84.9174,275.2047,7.2772e-05,8.7e-06,0.0,0 STARLINK-4634,1 53967U 22125D   23270.06477949  .00000870  00000-0  72772-4 0  9996,2 53967  53.2168 280.2845 0002005  84.9174 275.2047 15.08838798 54335,6917.884,95.438,541.136,538.362,0.0
53967.0,STARLINK-4634,PAYLOAD,2023-09-27 07:54:49,15.08836998,0.0001344,53.2159,279.0951,92.2748,267.8398,-8.5379e-05,-1.646e-05,0.0,0 STARLINK-4634,1 53967U 22125D   23270.32973930 -.00001646  00000-0 -85379-4 0  9997,2 53967  53.2159 279.0951 0001344  92.2748 267.8398 15.08836998 54306,6917.89,95.438,540.684,538.825,0.0
53967.0,STARLINK-4634,PAYLOAD,2023-09-28 09:21:00,15.08838619,0.0001357,53.217,274.3379,97.3126,262.802,-2.5778e-05,-6.98e-06,0.0,0 STARLINK-4634,1 53967U 22125D   23271.38958760 -.00000698  00000-0 -25778-4 0  9991,2 53967  53.2170 274.3379 0001357  97.3126 262.8020 15.08838619 54535,6917.885,95.438,540.688,538.811,0.0
53967.0,STARLINK-4634,PAYLOAD,2023-09-29 09:11:46,15.08844989,0.0001243,53.2167,269.877,92.3244,267.789,0.00023182,3.404e-05,0.0,0 STARLINK-4634,1 53967U 22125D   23272.38318223  .00003404  00000-0  23182-3 0  9998,2 53967  53.2167 269.8770 0001243  92.3244 267.7890 15.08844989 54687,6917.865,95.437,540.59,538.87,0.0
53967.0,STARLINK-4634,PAYLOAD,2023-09-29 12:22:32,15.08849419,0.000121,53.2164,269.2823,94.263,265.85,0.00026562,3.943e-05,0.0,0 STARLINK-4634,1 53967U 22125D   23272.51565917  .00003943  00000-0  26562-3 0  9990,2 53967  53.2164 269.2823 0001210  94.2630 265.8500 15.08849419 54636,6917.852,95.437,540.554,538.88,0.0
53967.0,STARLINK-4634,PAYLOAD,2023-09-30 04:16:24,15.08843527,0.0001382,53.217,266.3034,93.0639,267.0511,0.00027079,4.025e-05,0.0,0 STARLINK-4634,1 53967U 22125D   23273.17806521  .00004025  00000-0  27079-3 0  9998,2 53967  53.2170 266.3034 0001382  93.0639 267.0511 15.08843527 54800,6917.87,95.437,540.691,538.779,0.0
53967.0,STARLINK-4634,PAYLOAD,2023-09-30 23:21:02,15.08841271,0.0001465,53.2148,262.7402,103.2433,256.8723,-6.9278e-05,-1.39e-05,0.0,0 STARLINK-4634,1 53967U 22125D   23273.97294579 -.00001390  00000-0 -69278-4 0  9992,2 53967  53.2148 262.7402 0001465 103.2433 256.8723 15.08841271 54920,6917.877,95.437,540.755,538.728,0.0
53967.0,STARLINK-4634,PAYLOAD,2023-10-01 08:53:21,15.08846219,0.0001636,53.2163,260.9538,108.1385,251.9786,2.6446e-05,1.33e-06,0.0,0 STARLINK-4634,1 53967U 22125D   23274.37038256  .00000133  00000-0  26446-4 0  9997,2 53967  53.2163 260.9538 0001636 108.1385 251.9786 15.08846219 54918,6917.861,95.437,540.858,538.595,0.0
53967.0,STARLINK-4634,PAYLOAD,2023-10-01 16:50:17,15.08838304,0.0001413,53.2152,259.466,112.0185,248.0957,-5.4119e-05,-1.149e-05,0.0,0 STARLINK-4634,1 53967U 22125D   23274.70158574 -.00001149  00000-0 -54119-4 0  9998,2 53967  53.2152 259.4660 0001413 112.0185 248.0957 15.08838304 54968,6917.886,95.438,540.728,538.773,0.0
53967.0,STARLINK-4634,PAYLOAD,2023-10-02 02:22:35,15.08847163,0.0001409,53.2161,257.6825,88.1839,271.9315,2.6981e-05,1.42e-06,0.0,0 STARLINK-4634,1 53967U 22125D   23275.09902237  .00000142  00000-0  26981-4 0  9990,2 53967  53.2161 257.6825 0001409  88.1839 271.9315 15.08847163 55096,6917.858,95.437,540.698,538.749,0.0
53967.0,STARLINK-4634,PAYLOAD,2023-10-02 10:19:30,15.08862066,0.0001537,53.2166,256.1942,95.9201,264.1966,0.00028194,4.205e-05,0.0,0 STARLINK-4634,1 53967U 22125D   23275.43021300  .00004205  00000-0  28194-3 0  9992,2 53967  53.2166 256.1942 0001537  95.9201 264.1966 15.08862066 55147,6917.813,95.436,540.741,538.615,0.0
53967.0,STARLINK-4634,PAYLOAD,2023-10-03 05:24:09,15.08838682,0.0001425,53.217,252.6307,96.8691,263.2463,0.00010613,1.401e-05,0.0,0 STARLINK-4634,1 53967U 22125D   23276.22510826  .00001401  00000-0  10613-3 0  9998,2 53967  53.2170 252.6307 0001425  96.8691 263.2463 15.08838682 55269,6917.884,95.438,540.735,538.764,0.0
53967.0,STARLINK-4634,PAYLOAD,2023-10-03 10:10:18,15.08845741,0.0001408,53.2177,251.7366,94.2542,265.8611,0.00028516,4.254e-05,0.0,0 STARLINK-4634,1 53967U 22125D   23276.42382545  .00004254  00000-0  28516-3 0  9995,2 53967  53.2177 251.7366 0001408  94.2542 265.8611 15.08845741 55222,6917.863,95.437,540.702,538.754,0.0
53967.0,STARLINK-4634,PAYLOAD,2023-10-03 14:56:28,15.08830872,0.0001331,53.2177,250.8452,89.9137,270.2008,-8.3373e-05,-1.614e-05,0.0,0 STARLINK-4634,1 53967U 22125D   23276.62255107 -.00001614  00000-0 -83373-4 0  9992,2 53967  53.2177 250.8452 0001331  89.9137 270.2008 15.08830872 55324,6917.908,95.438,540.694,538.853,0.0
53967.0,STARLINK-4634,PAYLOAD,2023-10-04 14:47:15,15.08843918,0.0001494,53.2165,246.385,94.4765,265.6398,0.00075464,0.00011744,0.0,0 STARLINK-4634,1 53967U 22125D   23277.61615558  .00011744  00000-0  75464-3 0  9996,2 53967  53.2165 246.3850 0001494  94.4765 265.6398 15.08843918 55472,6917.868,95.437,540.767,538.7,0.0
53967.0,STARLINK-4634,PAYLOAD,2023-10-04 21:08:48,15.08848721,0.0001508,53.2171,245.1963,96.7981,263.3183,0.00073168,0.00011379,0.0,0 STARLINK-4634,1 53967U 22125D   23277.88111458  .00011379  00000-0  73168-3 0  9998,2 53967  53.2171 245.1963 0001508  96.7981 263.3183 15.08848721 55443,6917.854,95.437,540.762,538.676,0.0
53967.0,STARLINK-4634,PAYLOAD,2023-10-05 08:16:29,15.08864281,0.0001384,53.2166,243.1143,98.0094,262.1055,0.00095401,0.00014938,0.0,0 STARLINK-4634,1 53967U 22125D   23278.34478891  .00014938  00000-0  95401-3 0  9995,2 53967  53.2166 243.1143 0001384  98.0094 262.1055 15.08864281 55519,6917.806,95.436,540.629,538.714,0.0
53967.0,STARLINK-4634,PAYLOAD,2023-10-05 14:38:02,15.08859719,0.0001159,53.2164,241.9233,87.8353,272.2772,0.00063042,9.765e-05,0.0,0 STARLINK-4634,1 53967U 22125D   23278.60974762  .00009765  00000-0  63042-3 0  9990,2 53967  53.2164 241.9233 0001159  87.8353 272.2772 15.08859719 55627,6917.82,95.436,540.487,538.883,0.0
53967.0,STARLINK-4634,PAYLOAD,2023-10-06 01:45:44,15.08844015,0.0002199,53.2177,239.8448,87.8064,272.318,0.00012981,1.779e-05,0.0,0 STARLINK-4634,1 53967U 22125D   23279.07343289  .00001779  00000-0  12981-3 0  9999,2 53967  53.2177 239.8448 0002199  87.8064 272.3180 15.08844015 55693,6917.868,95.437,541.254,538.212,0.0
53967.0,STARLINK-4634,PAYLOAD,2023-10-06 06:31:53,15.08847511,0.0001629,53.2169,238.9518,89.5392,270.5787,0.00025377,3.754e-05,0.0,0 STARLINK-4634,1 53967U 22125D   23279.27215102  .00003754  00000-0  25377-3 0  9991,2 53967  53.2169 238.9518 0001629  89.5392 270.5787 15.08847511 55655,6917.857,95.437,540.849,538.596,0.0
53967.0,STARLINK-4634,PAYLOAD,2023-10-07 01:36:31,15.08837478,0.0001611,53.2165,235.3828,95.9331,264.1844,0.00037212,5.639e-05,0.0,0 STARLINK-4634,1 53967U 22125D   23280.06703625  .00005639  00000-0  37212-3 0  9997,2 53967  53.2165 235.3828 0001611  95.9331 264.1844 15.08837478 55846,6917.888,95.438,540.868,538.639,0.0
53967.0,STARLINK-4634,PAYLOAD,2023-10-07 06:22:41,15.08843664,0.0001547,53.2159,234.4899,85.5836,274.5333,0.00046013,7.043e-05,0.0,0 STARLINK-4634,1 53967U 22125D   23280.26575594  .00007043  00000-0  46013-3 0  9991,2 53967  53.2159 234.4899 0001547  85.5836 274.5333 15.08843664 55808,6917.869,95.437,540.804,538.664,0.0
53967.0,STARLINK-4634,PAYLOAD,2023-10-07 14:19:37,15.08841068,0.0001559,53.2159,233.0038,92.2742,267.8429,0.00032853,4.945e-05,0.0,0 STARLINK-4634,1 53967U 22125D   23280.59695730  .00004945  00000-0  32853-3 0  9997,2 53967  53.2159 233.0038 0001559  92.2742 267.8429 15.08841068 55854,6917.877,95.437,540.821,538.664,0.0
53967.0,STARLINK-4634,PAYLOAD,2023-10-08 03:02:42,15.0884613,0.0001495,53.2142,230.6222,105.4658,254.6499,0.00049875,7.66e-05,0.0,0 STARLINK-4634,1 53967U 22125D   23281.12687602  .00007660  00000-0  49875-3 0  9995,2 53967  53.2142 230.6222 0001495 105.4658 254.6499 15.08846130 56000,6917.862,95.437,540.761,538.692,0.0
53967.0,STARLINK-4634,PAYLOAD,2023-10-08 14:10:24,15.088421,0.000155,53.2164,228.5417,103.1233,256.9932,0.00043552,6.65e-05,0.0,0 STARLINK-4634,1 53967U 22125D   23281.59055789  .00006650  00000-0  43552-3 0  9995,2 53967  53.2164 228.5417 0001550 103.1233 256.9932 15.08842100 56079,6917.874,95.437,540.811,538.667,0.0
53967.0,STARLINK-4634,PAYLOAD,2023-10-08 20:31:56,15.08845913,0.0001569,53.2152,227.3536,93.7375,266.3796,0.00031874,4.789e-05,0.0,0 STARLINK-4634,1 53967U 22125D   23281.85551704  .00004789  00000-0  31874-3 0  9997,2 53967  53.2152 227.3536 0001569  93.7375 266.3796 15.08845913 56041,6917.862,95.437,540.813,538.642,0.0
